[ {"CCSDS_OMM_VERS": "3.0", "COMMENT": "GENERATED VIA SPACE-TRACK.ORG API", "CREATION_DATE": "2020-02-20T02:33:05", "ORIGINATOR": "18 SPCS", "OBJECT_NAME": "OPS-SAT", "OBJECT_ID": "2019-092F", "CENTER_NAME": "EARTH", "REF_FRAME": "TEME", "TIME_SYSTEM": "UTC", "MEAN_ELEMENT_THEORY": "SGP4", "EPOCH": "2020-02-19T15:26:46.145760", "MEAN_MOTION": "15.15261972", "ECCENTRICITY": "0.00156640", "INCLINATION": "97.4649", "RA_OF_ASC_NODE": "235.9600", "ARG_OF_PERICENTER": "51.4976", "MEAN_ANOMALY": "308.7691", "EPHEMERIS_TYPE": "0", "CLASSIFICATION_TYPE": "U", "NORAD_CAT_ID": "44878", "ELEMENT_SET_NO": "999", "REV_AT_EPOCH": "954", "BSTAR": "0.00000000000000", "MEAN_MOTION_DOT": "-0.00000066", "MEAN_MOTION_DDOT": "0.0000000000000", "SEMIMAJOR_AXIS": "6898.320", "PERIOD": "95.033", "APOAPSIS": "530.990", "PERIAPSIS": "509.379", "OBJECT_TYPE": "PAYLOAD", "RCS_SIZE": "SMALL", "COUNTRY_CODE": "ESA", "LAUNCH_DATE": "2019-12-18", "SITE": "FRGUI", "DECAY_DATE": null, "FILE": "2706484", "GP_ID": "149126190", "TLE_LINE0": "0 OPS-SAT", "TLE_LINE1": "1 44878U 19092F   20050.64358965 -.00000066 +00000-0 +00000-0 0  9998", "TLE_LINE2": "2 44878 097.4649 235.9600 0015664 051.4976 308.7691 15.15261972009542"}, {"CCSDS_OMM_VERS": "3.0", "COMMENT": "GENERATED VIA SPACE-TRACK.ORG API", "CREATION_DATE": "2020-02-20T21:37:49", "ORIGINATOR": "18 SPCS", "OBJECT_NAME": "OPS-SAT", "OBJECT_ID": "2019-092F", "CENTER_NAME": "EARTH", "REF_FRAME": "TEME", "TIME_SYSTEM": "UTC", "MEAN_ELEMENT_THEORY": "SGP4", "EPOCH": "2020-02-20T05:42:36.279360", "MEAN_MOTION": "15.15263193", "ECCENTRICITY": "0.00153200", "INCLINATION": "97.4649", "RA_OF_ASC_NODE": "236.5440", "ARG_OF_PERICENTER": "49.7994", "MEAN_ANOMALY": "310.4602", "EPHEMERIS_TYPE": "0", "CLASSIFICATION_TYPE": "U", "NORAD_CAT_ID": "44878", "ELEMENT_SET_NO": "999", "REV_AT_EPOCH": "963", "BSTAR": "0.00000000000000", "MEAN_MOTION_DOT": "-0.00000066", "MEAN_MOTION_DDOT": "0.0000000000000", "SEMIMAJOR_AXIS": "6898.316", "PERIOD": "95.032", "APOAPSIS": "530.749", "PERIAPSIS": "509.613", "OBJECT_TYPE": "PAYLOAD", "RCS_SIZE": "SMALL", "COUNTRY_CODE": "ESA", "LAUNCH_DATE": "2019-12-18", "SITE": "FRGUI", "DECAY_DATE": null, "FILE": "2706925", "GP_ID": "149175139", "TLE_LINE0": "0 OPS-SAT", "TLE_LINE1": "1 44878U 19092F   20051.23791990 -.00000066 +00000-0 +00000-0 0  9993", "TLE_LINE2": "2 44878 097.4649 236.5440 0015320 049.7994 310.4602 15.15263193009639"}, {"CCSDS_OMM_VERS": "3.0", "COMMENT": "GENERATED VIA SPACE-TRACK.ORG API", "CREATION_DATE": "2020-02-20T21:26:20", "ORIGINATOR": "18 SPCS", "OBJECT_NAME": "OPS-SAT", "OBJECT_ID": "2019-092F", "CENTER_NAME": "EARTH", "REF_FRAME": "TEME", "TIME_SYSTEM": "UTC", "MEAN_ELEMENT_THEORY": "SGP4", "EPOCH": "2020-02-20T15:13:09.823872", "MEAN_MOTION": "15.15264273", "ECCENTRICITY": "0.00155500", "INCLINATION": "97.4651", "RA_OF_ASC_NODE": "236.9325", "ARG_OF_PERICENTER": "47.2779", "MEAN_ANOMALY": "312.9834", "EPHEMERIS_TYPE": "0", "CLASSIFICATION_TYPE": "U", "NORAD_CAT_ID": "44878", "ELEMENT_SET_NO": "999", "REV_AT_EPOCH": "969", "BSTAR": "0.00000000000000", "MEAN_MOTION_DOT": "-0.00000066", "MEAN_MOTION_DDOT": "0.0000000000000", "SEMIMAJOR_AXIS": "6898.313", "PERIOD": "95.032", "APOAPSIS": "530.905", "PERIAPSIS": "509.451", "OBJECT_TYPE": "PAYLOAD", "RCS_SIZE": "SMALL", "COUNTRY_CODE": "ESA", "LAUNCH_DATE": "2019-12-18", "SITE": "FRGUI", "DECAY_DATE": null, "FILE": "2706854", "GP_ID": "149153720", "TLE_LINE0": "0 OPS-SAT", "TLE_LINE1": "1 44878U 19092F   20051.63414148 -.00000066  00000-0  00000+0 0  9993", "TLE_LINE2": "2 44878  97.4651 236.9325 0015550  47.2779 312.9834 15.15264273  9697"}, {"CCSDS_OMM_VERS": "3.0", "COMMENT": "GENERATED VIA SPACE-TRACK.ORG API", "CREATION_DATE": "2020-02-21T18:27:12", "ORIGINATOR": "18 SPCS", "OBJECT_NAME": "OPS-SAT", "OBJECT_ID": "2019-092F", "CENTER_NAME": "EARTH", "REF_FRAME": "TEME", "TIME_SYSTEM": "UTC", "MEAN_ELEMENT_THEORY": "SGP4", "EPOCH": "2020-02-21T07:04:05.504160", "MEAN_MOTION": "15.15265937", "ECCENTRICITY": "0.00154540", "INCLINATION": "97.4646", "RA_OF_ASC_NODE": "237.5798", "ARG_OF_PERICENTER": "45.7878", "MEAN_ANOMALY": "314.4694", "EPHEMERIS_TYPE": "0", "CLASSIFICATION_TYPE": "U", "NORAD_CAT_ID": "44878", "ELEMENT_SET_NO": "999", "REV_AT_EPOCH": "979", "BSTAR": "0.00000000000000", "MEAN_MOTION_DOT": "-0.00000066", "MEAN_MOTION_DDOT": "0.0000000000000", "SEMIMAJOR_AXIS": "6898.308", "PERIOD": "95.032", "APOAPSIS": "530.833", "PERIAPSIS": "509.512", "OBJECT_TYPE": "PAYLOAD", "RCS_SIZE": "SMALL", "COUNTRY_CODE": "ESA", "LAUNCH_DATE": "2019-12-18", "SITE": "FRGUI", "DECAY_DATE": null, "FILE": "2707433", "GP_ID": "149245565", "TLE_LINE0": "0 OPS-SAT", "TLE_LINE1": "1 44878U 19092F   20052.29450815 -.00000066 +00000-0 +00000-0 0  9998", "TLE_LINE2": "2 44878 097.4646 237.5798 0015454 045.7878 314.4694 15.15265937009798"}, {"CCSDS_OMM_VERS": "3.0", "COMMENT": "GENERATED VIA SPACE-TRACK.ORG API", "CREATION_DATE": "2020-02-21T22:16:13", "ORIGINATOR": "18 SPCS", "OBJECT_NAME": "OPS-SAT", "OBJECT_ID": "2019-092F", "CENTER_NAME": "EARTH", "REF_FRAME": "TEME", "TIME_SYSTEM": "UTC", "MEAN_ELEMENT_THEORY": "SGP4", "EPOCH": "2020-02-21T14:59:33.321408", "MEAN_MOTION": "15.15267385", "ECCENTRICITY": "0.00155070", "INCLINATION": "97.4638", "RA_OF_ASC_NODE": "237.9043", "ARG_OF_PERICENTER": "45.3930", "MEAN_ANOMALY": "314.8692", "EPHEMERIS_TYPE": "0", "CLASSIFICATION_TYPE": "U", "NORAD_CAT_ID": "44878", "ELEMENT_SET_NO": "999", "REV_AT_EPOCH": "984", "BSTAR": "0.00000000000000", "MEAN_MOTION_DOT": "-0.00000066", "MEAN_MOTION_DDOT": "0.0000000000000", "SEMIMAJOR_AXIS": "6898.303", "PERIOD": "95.032", "APOAPSIS": "530.866", "PERIAPSIS": "509.471", "OBJECT_TYPE": "PAYLOAD", "RCS_SIZE": "SMALL", "COUNTRY_CODE": "ESA", "LAUNCH_DATE": "2019-12-18", "SITE": "FRGUI", "DECAY_DATE": null, "FILE": "2707487", "GP_ID": "149246167", "TLE_LINE0": "0 OPS-SAT", "TLE_LINE1": "1 44878U 19092F   20052.62469122 -.00000066  00000-0  00000+0 0  9995", "TLE_LINE2": "2 44878  97.4638 237.9043 0015507  45.3930 314.8692 15.15267385  9847"}, {"CCSDS_OMM_VERS": "3.0", "COMMENT": "GENERATED VIA SPACE-TRACK.ORG API", "CREATION_DATE": "2020-02-22T17:39:40", "ORIGINATOR": "18 SPCS", "OBJECT_NAME": "OPS-SAT", "OBJECT_ID": "2019-092F", "CENTER_NAME": "EARTH", "REF_FRAME": "TEME", "TIME_SYSTEM": "UTC", "MEAN_ELEMENT_THEORY": "SGP4", "EPOCH": "2020-02-22T05:15:23.212224", "MEAN_MOTION": "15.15268471", "ECCENTRICITY": "0.00151620", "INCLINATION": "97.4647", "RA_OF_ASC_NODE": "238.4893", "ARG_OF_PERICENTER": "44.2285", "MEAN_ANOMALY": "316.0213", "EPHEMERIS_TYPE": "0", "CLASSIFICATION_TYPE": "U", "NORAD_CAT_ID": "44878", "ELEMENT_SET_NO": "999", "REV_AT_EPOCH": "993", "BSTAR": "0.00000000000000", "MEAN_MOTION_DOT": "-0.00000066", "MEAN_MOTION_DDOT": "0.0000000000000", "SEMIMAJOR_AXIS": "6898.300", "PERIOD": "95.032", "APOAPSIS": "530.624", "PERIAPSIS": "509.706", "OBJECT_TYPE": "PAYLOAD", "RCS_SIZE": "SMALL", "COUNTRY_CODE": "ESA", "LAUNCH_DATE": "2019-12-18", "SITE": "FRGUI", "DECAY_DATE": null, "FILE": "2708018", "GP_ID": "149296928", "TLE_LINE0": "0 OPS-SAT", "TLE_LINE1": "1 44878U 19092F   20053.21901866 -.00000066 +00000-0 +00000-0 0  9998", "TLE_LINE2": "2 44878 097.4647 238.4893 0015162 044.2285 316.0213 15.15268471009934"}, {"CCSDS_OMM_VERS": "3.0", "COMMENT": "GENERATED VIA SPACE-TRACK.ORG API", "CREATION_DATE": "2020-02-23T02:08:14", "ORIGINATOR": "18 SPCS", "OBJECT_NAME": "OPS-SAT", "OBJECT_ID": "2019-092F", "CENTER_NAME": "EARTH", "REF_FRAME": "TEME", "TIME_SYSTEM": "UTC", "MEAN_ELEMENT_THEORY": "SGP4", "EPOCH": "2020-02-22T14:45:56.584800", "MEAN_MOTION": "15.15269267", "ECCENTRICITY": "0.00150740", "INCLINATION": "97.4641", "RA_OF_ASC_NODE": "238.8794", "ARG_OF_PERICENTER": "43.0372", "MEAN_ANOMALY": "317.2139", "EPHEMERIS_TYPE": "0", "CLASSIFICATION_TYPE": "U", "NORAD_CAT_ID": "44878", "ELEMENT_SET_NO": "999", "REV_AT_EPOCH": "999", "BSTAR": "0.00000000000000", "MEAN_MOTION_DOT": "-0.00000066", "MEAN_MOTION_DDOT": "0.0000000000000", "SEMIMAJOR_AXIS": "6898.298", "PERIOD": "95.032", "APOAPSIS": "530.561", "PERIAPSIS": "509.764", "OBJECT_TYPE": "PAYLOAD", "RCS_SIZE": "SMALL", "COUNTRY_CODE": "ESA", "LAUNCH_DATE": "2019-12-18", "SITE": "FRGUI", "DECAY_DATE": null, "FILE": "2708216", "GP_ID": "149320498", "TLE_LINE0": "0 OPS-SAT", "TLE_LINE1": "1 44878U 19092F   20053.61523825 -.00000066 +00000-0 +00000-0 0  9997", "TLE_LINE2": "2 44878 097.4641 238.8794 0015074 043.0372 317.2139 15.15269267009998"}, {"CCSDS_OMM_VERS": "3.0", "COMMENT": "GENERATED VIA SPACE-TRACK.ORG API", "CREATION_DATE": "2020-02-23T06:26:15", "ORIGINATOR": "18 SPCS", "OBJECT_NAME": "OPS-SAT", "OBJECT_ID": "2019-092F", "CENTER_NAME": "EARTH", "REF_FRAME": "TEME", "TIME_SYSTEM": "UTC", "MEAN_ELEMENT_THEORY": "SGP4", "EPOCH": "2020-02-22T19:31:13.143648", "MEAN_MOTION": "15.15269477", "ECCENTRICITY": "0.00149570", "INCLINATION": "97.4642", "RA_OF_ASC_NODE": "239.0741", "ARG_OF_PERICENTER": "43.1088", "MEAN_ANOMALY": "317.1345", "EPHEMERIS_TYPE": "0", "CLASSIFICATION_TYPE": "U", "NORAD_CAT_ID": "44878", "ELEMENT_SET_NO": "999", "REV_AT_EPOCH": "1002", "BSTAR": "0.00000000000000", "MEAN_MOTION_DOT": "-0.00000066", "MEAN_MOTION_DDOT": "0.0000000000000", "SEMIMAJOR_AXIS": "6898.297", "PERIOD": "95.032", "APOAPSIS": "530.480", "PERIAPSIS": "509.844", "OBJECT_TYPE": "PAYLOAD", "RCS_SIZE": "SMALL", "COUNTRY_CODE": "ESA", "LAUNCH_DATE": "2019-12-18", "SITE": "FRGUI", "DECAY_DATE": null, "FILE": "2708238", "GP_ID": "149321084", "TLE_LINE0": "0 OPS-SAT", "TLE_LINE1": "1 44878U 19092F   20053.81334657 -.00000066  00000-0  00000+0 0  9991", "TLE_LINE2": "2 44878  97.4642 239.0741 0014957  43.1088 317.1345 15.15269477 10025"}]